NORAD_CAT_ID,OBJECT_NAME,OBJECT_TYPE,EPOCH,MEAN_MOTION,ECCENTRICITY,INCLINATION,RA_OF_ASC_NODE,ARG_OF_PERICENTER,MEAN_ANOMALY,BSTAR,MEAN_MOTION_DOT,MEAN_MOTION_DDOT,TLE_LINE0,TLE_LINE1,TLE_LINE2,SEMIMAJOR_AXIS,PERIOD,APOGEE,PERIGEE,DECAYED
54096.0,STARLINK-5188,PAYLOAD,2024-08-11 18:28:21,15.08852567,0.0002553,53.2179,34.8274,96.1394,263.9889,0.00043745,6.683e-05,0.0,0 STARLINK-5188,1 54096U 22136AX  24224.76969679  .00006683  00000-0  43745-3 0  9990,2 54096  53.2179  34.8274 0002553  96.1394 263.9889 15.08852567100663,6917.842,95.437,541.473,537.941,0.0
54096.0,STARLINK-5188,PAYLOAD,2024-08-11 21:39:08,15.08853026,0.0002056,53.2181,34.2347,98.1873,261.9352,0.0006495,0.00010068,0.0,0 STARLINK-5188,1 54096U 22136AX  24224.90217656  .00010068  00000-0  64950-3 0  9990,2 54096  53.2181  34.2347 0002056  98.1873 261.9352 15.08853026100218,6917.841,95.437,541.128,538.283,0.0
54096.0,STARLINK-5188,PAYLOAD,2024-08-12 04:00:40,15.088761,0.0002045,53.2194,33.0458,101.1141,259.0081,0.001576,0.00024908,0.0,0 STARLINK-5188,1 54096U 22136AX  24225.16713016  .00024908  00000-0  15760-2 0  9992,2 54096  53.2194  33.0458 0002045 101.1141 259.0081 15.08876100100724,6917.77,95.435,541.05,538.22,0.0
54096.0,STARLINK-5188,PAYLOAD,2024-08-12 11:57:36,15.08855232,8.66e-05,53.2181,31.5544,94.5519,265.5572,0.0014791,0.0002334,0.0,0 STARLINK-5188,1 54096U 22136AX  24225.49833638  .00023340  00000-0  14791-2 0  9993,2 54096  53.2181  31.5544 0000866  94.5519 265.5572 15.08855232100777,6917.834,95.437,540.298,539.1,0.0
54096.0,STARLINK-5188,PAYLOAD,2024-08-12 18:19:08,15.0888569,0.0001285,53.2177,30.3667,111.2547,248.8582,0.0040351,0.000646,0.0,0 STARLINK-5188,1 54096U 22136AX  24225.76329213  .00064600  00000-0  40351-2 0  9997,2 54096  53.2177  30.3667 0001285 111.2547 248.8582 15.08885690100810,6917.741,95.435,540.495,538.717,0.0
54096.0,STARLINK-5188,PAYLOAD,2024-08-13 03:51:26,15.08906291,0.0001084,53.2179,28.5803,327.8302,32.2624,0.002017,0.00032017,0.0,0 STARLINK-5188,1 54096U 22136AX  24226.16072325  .00032017  00000-0  20170-2 0  9995,2 54096  53.2179  28.5803 0001084 327.8302  32.2624 15.08906291100873,6917.678,95.433,540.293,538.793,0.0
54096.0,STARLINK-5188,PAYLOAD,2024-08-13 10:13:01,15.08750178,0.0002329,53.2181,27.3945,76.0003,284.1248,0.0018709,0.0002954,0.0,0 STARLINK-5188,1 54096U 22136AX  24226.42570919  .00029540  00000-0  18709-2 0  9998,2 54096  53.2181  27.3945 0002329  76.0003 284.1248 15.08750178100910,6918.155,95.443,541.631,538.409,0.0
54096.0,STARLINK-5188,PAYLOAD,2024-08-13 19:45:21,15.08785207,0.0001873,53.219,25.6107,78.9068,281.2135,0.0025728,0.00040834,0.0,0 STARLINK-5188,1 54096U 22136AX  24226.82316665  .00040834  00000-0  25728-2 0  9996,2 54096  53.2190  25.6107 0001873  78.9068 281.2135 15.08785207100505,6918.048,95.441,541.209,538.617,0.0
54096.0,STARLINK-5188,PAYLOAD,2024-08-14 10:03:49,15.08878114,0.0001548,53.2165,22.9339,69.0191,291.0966,0.0046686,0.00074881,0.0,0 STARLINK-5188,1 54096U 22136AX  24227.41932712  .00074881  00000-0  46686-2 0  9994,2 54096  53.2165  22.9339 0001548  69.0191 291.0966 15.08878114101064,6917.764,95.435,540.7,538.558,0.0
54096.0,STARLINK-5188,PAYLOAD,2024-08-14 14:49:58,15.08877523,0.0001164,53.213,22.0353,104.4062,255.7059,0.0027994,0.00044592,0.0,0 STARLINK-5188,1 54096U 22136AX  24227.61804233  .00044592  00000-0  27994-2 0  9999,2 54096  53.2130  22.0353 0001164 104.4062 255.7059 15.08877523100622,6917.766,95.435,540.436,538.825,0.0
54096.0,STARLINK-5188,PAYLOAD,2024-08-14 18:00:44,15.08877874,9.45e-05,53.2159,21.4428,100.0809,260.029,0.002329,0.00037011,0.0,0 STARLINK-5188,1 54096U 22136AX  24227.75051990  .00037011  00000-0  23290-2 0  9991,2 54096  53.2159  21.4428 0000945 100.0809 260.0290 15.08877874101116,6917.765,95.435,540.283,538.976,0.0
54096.0,STARLINK-5188,PAYLOAD,2024-08-15 03:33:03,15.08877312,0.0001196,53.2166,19.66,91.9159,268.197,0.0019695,0.00031228,0.0,0 STARLINK-5188,1 54096U 22136AX  24228.14795376  .00031228  00000-0  19695-2 0  9996,2 54096  53.2166  19.6600 0001196  91.9159 268.1970 15.08877312101177,6917.766,95.435,540.459,538.804,0.0
54096.0,STARLINK-5188,PAYLOAD,2024-08-15 17:51:31,15.08869244,0.0001173,53.2157,16.9826,104.3832,255.7291,0.0025498,0.00040558,0.0,0 STARLINK-5188,1 54096U 22136AX  24228.74410986  .00040558  00000-0  25498-2 0  9997,2 54096  53.2157  16.9826 0001173 104.3832 255.7291 15.08869244101262,6917.791,95.436,540.467,538.845,0.0
54096.0,STARLINK-5188,PAYLOAD,2024-08-16 03:23:49,15.08868224,0.0001443,53.2166,15.2015,89.2717,270.8441,0.0014491,0.00022867,0.0,0 STARLINK-5188,1 54096U 22136AX  24229.14154607  .00022867  00000-0  14491-2 0  9991,2 54096  53.2166  15.2015 0001443  89.2717 270.8441 15.08868224101326,6917.794,95.436,540.657,538.661,0.0
54096.0,STARLINK-5188,PAYLOAD,2024-08-16 19:17:41,15.08846725,0.0001797,53.2169,12.2272,97.1425,262.9772,0.0012261,0.00019283,0.0,0 STARLINK-5188,1 54096U 22136AX  24229.80394845  .00019283  00000-0  12261-2 0  9995,2 54096  53.2169  12.2272 0001797  97.1425 262.9772 15.08846725101429,6917.86,95.437,540.968,538.482,0.0
54096.0,STARLINK-5188,PAYLOAD,2024-08-17 19:08:28,15.08840415,7.48e-05,53.219,7.7656,108.4543,251.653,0.00064742,0.00010031,0.0,0 STARLINK-5188,1 54096U 22136AX  24230.79754976  .00010031  00000-0  64742-3 0  9994,2 54096  53.2190   7.7656 0000748 108.4543 251.6530 15.08840415101573,6917.879,95.438,540.262,539.227,0.0
54096.0,STARLINK-5188,PAYLOAD,2024-08-18 12:37:42,15.08844328,0.0001153,53.2181,4.4975,80.5013,279.611,0.00035646,5.39e-05,0.0,0 STARLINK-5188,1 54096U 22136AX  24231.52619100  .00005390  00000-0  35646-3 0  9998,2 54096  53.2181   4.4975 0001153  80.5013 279.6110 15.08844328101687,6917.867,95.437,540.53,538.935,0.0
54096.0,STARLINK-5188,PAYLOAD,2024-08-18 15:48:28,15.08849583,0.0001317,53.2192,3.902,82.8889,277.2253,0.00039175,5.954e-05,0.0,0 STARLINK-5188,1 54096U 22136AX  24231.65866861  .00005954  00000-0  39175-3 0  9997,2 54096  53.2192   3.9020 0001317  82.8889 277.2253 15.08849583101233,6917.851,95.437,540.627,538.805,0.0
54096.0,STARLINK-5188,PAYLOAD,2024-08-19 09:17:43,15.08844654,0.0001407,53.2202,0.6287,89.0745,271.0409,0.00018227,2.614e-05,0.0,0 STARLINK-5188,1 54096U 22136AX  24232.38730875  .00002614  00000-0  18227-3 0  9998,2 54096  53.2202   0.6287 0001407  89.0745 271.0409 15.08844654101817,6917.866,95.437,540.705,538.758,0.0
54096.0,STARLINK-5188,PAYLOAD,2024-08-19 17:14:39,15.0883708,0.0001212,53.2188,359.1417,142.4199,217.6878,1.3463e-05,-7.4e-07,0.0,0 STARLINK-5188,1 54096U 22136AX  24232.71851005 -.00000074  00000-0  13463-4 0  9991,2 54096  53.2188 359.1417 0001212 142.4199 217.6878 15.08837080101864,6917.889,95.438,540.593,538.916,0.0
54096.0,STARLINK-5188,PAYLOAD,2024-08-20 13:54:40,15.08844846,0.0001288,53.2173,355.2805,102.8353,257.2783,2.2315e-05,6.7e-07,0.0,0 STARLINK-5188,1 54096U 22136AX  24233.57963081  .00000067  00000-0  22315-4 0  9991,2 54096  53.2173 355.2805 0001288 102.8353 257.2783 15.08844846101527,6917.866,95.437,540.622,538.84,0.0
54096.0,STARLINK-5188,PAYLOAD,2024-08-21 12:10:04,15.08842121,0.0001483,53.219,351.1095,116.8811,243.2333,0.00022629,3.315e-05,0.0,0 STARLINK-5188,1 54096U 22136AX  24234.50699361  .00003315  00000-0  22629-3 0  9998,2 54096  53.2190 351.1095 0001483 116.8811 243.2333 15.08842121102131,6917.874,95.437,540.765,538.713,0.0
54096.0,STARLINK-5188,PAYLOAD,2024-08-21 13:45:27,15.08842108,0.0002115,53.2204,350.8159,146.4835,213.6291,0.00015357,2.157e-05,0.0,0 STARLINK-5188,1 54096U 22136AX  24234.57323056  .00002157  00000-0  15357-3 0  9993,2 54096  53.2204 350.8159 0002115 146.4835 213.6291 15.08842108101679,6917.874,95.437,541.202,538.276,0.0
54096.0,STARLINK-5188,PAYLOAD,2024-08-21 15:20:50,15.08835033,0.0001486,53.2182,350.5141,89.4235,270.6927,0.00018107,2.595e-05,0.0,0 STARLINK-5188,1 54096U 22136AX  24234.63947876  .00002595  00000-0  18107-3 0  9994,2 54096  53.2182 350.5141 0001486  89.4235 270.6927 15.08835033101681,6917.896,95.438,540.789,538.733,0.0
